IRIDIUM 166             
1 43570U 18061B   24097.09660545  .00000289  00000+0  95994-4 0  9990
2 43570  86.4011  31.9254 0002459  81.1987 278.9487 14.34218702298432
IRIDIUM 158             
1 43571U 18061C   24097.48350207  .00000072  00000+0  18807-4 0  9993
2 43571  86.4012  31.7731 0002217  79.8613 280.2833 14.34216989298463
IRIDIUM 165             
1 43572U 18061D   24097.36933448  .00000109  00000+0  31964-4 0  9995
2 43572  86.4012  31.8519 0002224  78.1917 281.9528 14.34217327298462
IRIDIUM 155             
1 43573U 18061E   24096.91268607  .00000326  00000+0  10948-3 0  9993
2 43573  86.4009  31.9513 0002417  84.0776 276.0695 14.34216084298365
IRIDIUM 154             
1 43574U 18061F   24097.10293530  .00000017  00000+0 -10541-5 0  9998
2 43574  86.4013  31.9661 0001999  88.5304 271.6121 14.34208287298445
IRIDIUM 163             
1 43575U 18061G   24096.87459624  .00000027  00000+0  26819-5 0  9995
2 43575  86.4010  32.0018 0002299  87.2122 272.9336 14.34213377298380
IRIDIUM 156             
1 43576U 18061H   24096.84924326  .00000032  00000+0  43352-5 0  9996
2 43576  86.4009  32.0186 0002285  81.4461 278.6994 14.34216398298369
IRIDIUM 164             
1 43577U 18061J   24096.55113730  .00000311  00000+0  10404-3 0  9994
2 43577  86.4010  32.1709 0001996  81.3638 278.7784 14.34219138298371
